{
  "type": "FeatureCollection",
  "features": [
    {
      "type": "Feature",
      "properties": {
        "norad_id": 28890,
        "name": "BEIJING 1",
        "group": "dmc",
        "lat": 42.32861443274492,
        "lon": -67.61631546863727,
        "alt_km": 670.140546029309,
        "timestamp": "2025-12-03T06:58:42.907867+00:00",
        "meta_object_name": "BEIJING 1",
        "meta_object_id": "2005-043A",
        "meta_epoch": "2025-12-02T20:30:28.316160",
        "meta_mean_motion": 14.63350515,
        "meta_eccentricity": 0.0014807,
        "meta_inclination": 98.2649,
        "meta_ra_of_asc_node": 104.3385,
        "meta_arg_of_pericenter": 171.4254,
        "meta_mean_anomaly": 188.7204,
        "meta_ephemeris_type": 0,
        "meta_classification_type": "U",
        "meta_norad_cat_id": 28890,
        "meta_element_set_no": 999,
        "meta_rev_at_epoch": 7193,
        "meta_bstar": 0.00012127,
        "meta_mean_motion_dot": 5.78e-06,
        "meta_mean_motion_ddot": 0,
        "tle_line1": "1 28890U 05043A   25336.85449440  .00000578  00000+0  12127-3 0  9991",
        "tle_line2": "2 28890  98.2649 104.3385 0014807 171.4254 188.7204 14.63350515 71938"
      },
      "geometry": {
        "type": "Point",
        "coordinates": [
          -67.61631546863727,
          42.32861443274492
        ]
      }
    },
    {
      "type": "Feature",
      "properties": {
        "norad_id": 33320,
        "name": "HUANJING 1A (HJ-1A)",
        "group": "dmc",
        "lat": -25.255369489361577,
        "lon": 142.34755733232413,
        "alt_km": 635.7988076631073,
        "timestamp": "2025-12-03T06:58:42.907892+00:00",
        "meta_object_name": "HUANJING 1A (HJ-1A)",
        "meta_object_id": "2008-041A",
        "meta_epoch": "2025-12-02T20:20:36.060576",
        "meta_mean_motion": 14.83342967,
        "meta_eccentricity": 0.0020663,
        "meta_inclination": 97.6535,
        "meta_ra_of_asc_node": 325.56,
        "meta_arg_of_pericenter": 64.9998,
        "meta_mean_anomaly": 295.336,
        "meta_ephemeris_type": 0,
        "meta_classification_type": "U",
        "meta_norad_cat_id": 33320,
        "meta_element_set_no": 999,
        "meta_rev_at_epoch": 92929,
        "meta_bstar": 0.00025105,
        "meta_mean_motion_dot": 2.013e-05,
        "meta_mean_motion_ddot": 0,
        "tle_line1": "1 33320U 08041A   25336.84763959  .00002013  00000+0  25105-3 0  9995",
        "tle_line2": "2 33320  97.6535 325.5600 0020663  64.9998 295.3360 14.83342967929297"
      },
      "geometry": {
        "type": "Point",
        "coordinates": [
          142.34755733232413,
          -25.255369489361577
        ]
      }
    },
    {
      "type": "Feature",
      "properties": {
        "norad_id": 33321,
        "name": "HUANJING 1B (HJ-1B)",
        "group": "dmc",
        "lat": 81.14566125955328,
        "lon": -89.79270813447883,
        "alt_km": 588.0399254859494,
        "timestamp": "2025-12-03T06:58:42.907907+00:00",
        "meta_object_name": "HUANJING 1B (HJ-1B)",
        "meta_object_id": "2008-041B",
        "meta_epoch": "2025-12-02T20:52:41.187360",
        "meta_mean_motion": 14.82779275,
        "meta_eccentricity": 0.0038144,
        "meta_inclination": 97.6396,
        "meta_ra_of_asc_node": 329.304,
        "meta_arg_of_pericenter": 106.9623,
        "meta_mean_anomaly": 253.5777,
        "meta_ephemeris_type": 0,
        "meta_classification_type": "U",
        "meta_norad_cat_id": 33321,
        "meta_element_set_no": 999,
        "meta_rev_at_epoch": 92931,
        "meta_bstar": 0.00019707,
        "meta_mean_motion_dot": 1.562e-05,
        "meta_mean_motion_ddot": 0,
        "tle_line1": "1 33321U 08041B   25336.86992115  .00001562  00000+0  19707-3 0  9995",
        "tle_line2": "2 33321  97.6396 329.3040 0038144 106.9623 253.5777 14.82779275929314"
      },
      "geometry": {
        "type": "Point",
        "coordinates": [
          -89.79270813447883,
          81.14566125955328
        ]
      }
    },
    {
      "type": "Feature",
      "properties": {
        "norad_id": 33446,
        "name": "YAOGAN-4",
        "group": "dmc",
        "lat": 1.8206326402006623,
        "lon": -92.77000113721301,
        "alt_km": 613.7639202307919,
        "timestamp": "2025-12-03T06:58:42.907919+00:00",
        "meta_object_name": "YAOGAN-4",
        "meta_object_id": "2008-061A",
        "meta_epoch": "2025-12-02T19:37:56.076096",
        "meta_mean_motion": 14.82631045,
        "meta_eccentricity": 0.0014458,
        "meta_inclination": 97.9168,
        "meta_ra_of_asc_node": 267.0155,
        "meta_arg_of_pericenter": 356.4345,
        "meta_mean_anomaly": 3.6763,
        "meta_ephemeris_type": 0,
        "meta_classification_type": "U",
        "meta_norad_cat_id": 33446,
        "meta_element_set_no": 999,
        "meta_rev_at_epoch": 91656,
        "meta_bstar": 0.00026598,
        "meta_mean_motion_dot": 2.092e-05,
        "meta_mean_motion_ddot": 0,
        "tle_line1": "1 33446U 08061A   25336.81801014  .00002092  00000+0  26598-3 0  9992",
        "tle_line2": "2 33446  97.9168 267.0155 0014458 356.4345   3.6763 14.82631045916566"
      },
      "geometry": {
        "type": "Point",
        "coordinates": [
          -92.77000113721301,
          1.8206326402006623
        ]
      }
    },
    {
      "type": "Feature",
      "properties": {
        "norad_id": 35681,
        "name": "DEIMOS-1",
        "group": "dmc",
        "lat": 33.60056239144496,
        "lon": 133.16692707434908,
        "alt_km": 642.4243277443966,
        "timestamp": "2025-12-03T06:58:42.907930+00:00",
        "meta_object_name": "DEIMOS-1",
        "meta_object_id": "2009-041A",
        "meta_epoch": "2025-12-02T19:25:40.246176",
        "meta_mean_motion": 14.7492748,
        "meta_eccentricity": 0.000267,
        "meta_inclination": 97.7146,
        "meta_ra_of_asc_node": 137.8756,
        "meta_arg_of_pericenter": 97.7893,
        "meta_mean_anomaly": 262.3619,
        "meta_ephemeris_type": 0,
        "meta_classification_type": "U",
        "meta_norad_cat_id": 35681,
        "meta_element_set_no": 999,
        "meta_rev_at_epoch": 87793,
        "meta_bstar": 0.0001543,
        "meta_mean_motion_dot": 9.89e-06,
        "meta_mean_motion_ddot": 0,
        "tle_line1": "1 35681U 09041A   25336.80949359  .00000989  00000+0  15430-3 0  9994",
        "tle_line2": "2 35681  97.7146 137.8756 0002670  97.7893 262.3619 14.74927480877933"
      },
      "geometry": {
        "type": "Point",
        "coordinates": [
          133.16692707434908,
          33.60056239144496
        ]
      }
    },
    {
      "type": "Feature",
      "properties": {
        "norad_id": 35683,
        "name": "UK-DMC 2",
        "group": "dmc",
        "lat": 26.08115474007117,
        "lon": 108.58577693184438,
        "alt_km": 642.1855498607547,
        "timestamp": "2025-12-03T06:58:42.907941+00:00",
        "meta_object_name": "UK-DMC 2",
        "meta_object_id": "2009-041C",
        "meta_epoch": "2025-12-02T21:05:41.254944",
        "meta_mean_motion": 14.75585673,
        "meta_eccentricity": 0.0001278,
        "meta_inclination": 97.8556,
        "meta_ra_of_asc_node": 112.0608,
        "meta_arg_of_pericenter": 103.1985,
        "meta_mean_anomaly": 256.9367,
        "meta_ephemeris_type": 0,
        "meta_classification_type": "U",
        "meta_norad_cat_id": 35683,
        "meta_element_set_no": 999,
        "meta_rev_at_epoch": 87761,
        "meta_bstar": 0.00021482,
        "meta_mean_motion_dot": 1.416e-05,
        "meta_mean_motion_ddot": 0,
        "tle_line1": "1 35683U 09041C   25336.87894971  .00001416  00000+0  21482-3 0  9992",
        "tle_line2": "2 35683  97.8556 112.0608 0001278 103.1985 256.9367 14.75585673877618"
      },
      "geometry": {
        "type": "Point",
        "coordinates": [
          108.58577693184438,
          26.08115474007117
        ]
      }
    },
    {
      "type": "Feature",
      "properties": {
        "norad_id": 40715,
        "name": "DMC3-FM1",
        "group": "dmc",
        "lat": 75.75772995012272,
        "lon": 56.895342784354376,
        "alt_km": 606.2298200129335,
        "timestamp": "2025-12-03T06:58:42.907952+00:00",
        "meta_object_name": "DMC3-FM1",
        "meta_object_id": "2015-032A",
        "meta_epoch": "2025-12-02T20:49:15.644352",
        "meta_mean_motion": 14.8541191,
        "meta_eccentricity": 0.0005372,
        "meta_inclination": 97.67,
        "meta_ra_of_asc_node": 204.4192,
        "meta_arg_of_pericenter": 356.1771,
        "meta_mean_anomaly": 3.9402,
        "meta_ephemeris_type": 0,
        "meta_classification_type": "U",
        "meta_norad_cat_id": 40715,
        "meta_element_set_no": 999,
        "meta_rev_at_epoch": 56076,
        "meta_bstar": 0.00013741,
        "meta_mean_motion_dot": 1.132e-05,
        "meta_mean_motion_ddot": 0,
        "tle_line1": "1 40715U 15032A   25336.86754218  .00001132  00000+0  13741-3 0  9993",
        "tle_line2": "2 40715  97.6700 204.4192 0005372 356.1771   3.9402 14.85411910560763"
      },
      "geometry": {
        "type": "Point",
        "coordinates": [
          56.895342784354376,
          75.75772995012272
        ]
      }
    },
    {
      "type": "Feature",
      "properties": {
        "norad_id": 40716,
        "name": "DMC3-FM2",
        "group": "dmc",
        "lat": -18.29368426890031,
        "lon": -151.18057439760477,
        "alt_km": 613.3361924929795,
        "timestamp": "2025-12-03T06:58:42.907962+00:00",
        "meta_object_name": "DMC3-FM2",
        "meta_object_id": "2015-032B",
        "meta_epoch": "2025-12-02T21:21:40.283712",
        "meta_mean_motion": 14.85413142,
        "meta_eccentricity": 0.0006024,
        "meta_inclination": 97.6757,
        "meta_ra_of_asc_node": 205.8777,
        "meta_arg_of_pericenter": 0.141,
        "meta_mean_anomaly": 359.9806,
        "meta_ephemeris_type": 0,
        "meta_classification_type": "U",
        "meta_norad_cat_id": 40716,
        "meta_element_set_no": 999,
        "meta_rev_at_epoch": 56076,
        "meta_bstar": 0.00013965,
        "meta_mean_motion_dot": 1.152e-05,
        "meta_mean_motion_ddot": 0,
        "tle_line1": "1 40716U 15032B   25336.89004958  .00001152  00000+0  13965-3 0  9996",
        "tle_line2": "2 40716  97.6757 205.8777 0006024   0.1410 359.9806 14.85413142560762"
      },
      "geometry": {
        "type": "Point",
        "coordinates": [
          -151.18057439760477,
          -18.29368426890031
        ]
      }
    },
    {
      "type": "Feature",
      "properties": {
        "norad_id": 40717,
        "name": "DMC3-FM3",
        "group": "dmc",
        "lat": -45.92763047100987,
        "lon": 19.87746411300223,
        "alt_km": 621.7379869285132,
        "timestamp": "2025-12-03T06:58:42.907972+00:00",
        "meta_object_name": "DMC3-FM3",
        "meta_object_id": "2015-032C",
        "meta_epoch": "2025-12-02T21:52:43.503168",
        "meta_mean_motion": 14.85407136,
        "meta_eccentricity": 0.000538,
        "meta_inclination": 97.6811,
        "meta_ra_of_asc_node": 207.525,
        "meta_arg_of_pericenter": 2.2851,
        "meta_mean_anomaly": 357.8388,
        "meta_ephemeris_type": 0,
        "meta_classification_type": "U",
        "meta_norad_cat_id": 40717,
        "meta_element_set_no": 999,
        "meta_rev_at_epoch": 56077,
        "meta_bstar": 0.00011376,
        "meta_mean_motion_dot": 9.28e-06,
        "meta_mean_motion_ddot": 0,
        "tle_line1": "1 40717U 15032C   25336.91161462  .00000928  00000+0  11376-3 0  9998",
        "tle_line2": "2 40717  97.6811 207.5250 0005380   2.2851 357.8388 14.85407136560774"
      },
      "geometry": {
        "type": "Point",
        "coordinates": [
          19.87746411300223,
          -45.92763047100987
        ]
      }
    }
  ]
}